{
  "type": "FeatureCollection",
  "features": [
    {
      "type": "Feature",
      "properties": {
        "norad_id": 33655,
        "name": "FENGYUN 1C DEB",
        "group": "fengyun-1c-debris",
        "lat": -79.7662478540898,
        "lon": 108.50581424195086,
        "alt_km": 582.3246273071481,
        "timestamp": "2025-12-10T09:57:44.985968+00:00",
        "meta_object_name": "FENGYUN 1C DEB",
        "meta_object_id": "1999-025DEQ",
        "meta_epoch": "2025-12-08T15:02:28.005792",
        "meta_mean_motion": 14.97473855,
        "meta_eccentricity": 0.00476597,
        "meta_inclination": 98.8026,
        "meta_ra_of_asc_node": 47.3627,
        "meta_arg_of_pericenter": 12.392,
        "meta_mean_anomaly": 347.8459,
        "meta_ephemeris_type": 0,
        "meta_classification_type": "U",
        "meta_norad_cat_id": 33655,
        "meta_element_set_no": 999,
        "meta_rev_at_epoch": 96496,
        "meta_bstar": 0.0023169231,
        "meta_mean_motion_dot": 0.00027643,
        "meta_mean_motion_ddot": 0,
        "tle_line1": "1 33655U 99025DEQ 25342.62671303  .00027643  00000+0  23169-2 0  9995",
        "tle_line2": "2 33655  98.8026  47.3627 0047659  12.3920 347.8459 14.97473855964961"
      },
      "geometry": {
        "type": "Point",
        "coordinates": [
          108.50581424195086,
          -79.7662478540898
        ]
      }
    },
    {
      "type": "Feature",
      "properties": {
        "norad_id": 33656,
        "name": "FENGYUN 1C DEB",
        "group": "fengyun-1c-debris",
        "lat": -60.00738445596507,
        "lon": -7.300553906648587,
        "alt_km": 833.1247305774241,
        "timestamp": "2025-12-10T09:57:44.985978+00:00",
        "meta_object_name": "FENGYUN 1C DEB",
        "meta_object_id": "1999-025DER",
        "meta_epoch": "2025-12-08T19:25:37.486560",
        "meta_mean_motion": 14.2271982,
        "meta_eccentricity": 0.00906449,
        "meta_inclination": 98.5783,
        "meta_ra_of_asc_node": 335.9755,
        "meta_arg_of_pericenter": 42.7826,
        "meta_mean_anomaly": 318.0362,
        "meta_ephemeris_type": 0,
        "meta_classification_type": "U",
        "meta_norad_cat_id": 33656,
        "meta_element_set_no": 999,
        "meta_rev_at_epoch": 62653,
        "meta_bstar": 0.00077976866,
        "meta_mean_motion_dot": 1.78e-05,
        "meta_mean_motion_ddot": 0,
        "tle_line1": "1 33656U 99025DER 25342.80946165  .00001780  00000+0  77977-3 0  9998",
        "tle_line2": "2 33656  98.5783 335.9755 0090644  42.7826 318.0362 14.22719820626535"
      },
      "geometry": {
        "type": "Point",
        "coordinates": [
          -7.300553906648587,
          -60.00738445596507
        ]
      }
    },
    {
      "type": "Feature",
      "properties": {
        "norad_id": 33658,
        "name": "FENGYUN 1C DEB",
        "group": "fengyun-1c-debris",
        "lat": 26.954740251592984,
        "lon": -37.42675656941062,
        "alt_km": 851.2559145106397,
        "timestamp": "2025-12-10T09:57:44.985988+00:00",
        "meta_object_name": "FENGYUN 1C DEB",
        "meta_object_id": "1999-025DET",
        "meta_epoch": "2025-12-10T03:55:02.595936",
        "meta_mean_motion": 13.62337712,
        "meta_eccentricity": 0.0283612,
        "meta_inclination": 99.5634,
        "meta_ra_of_asc_node": 137.408,
        "meta_arg_of_pericenter": 187.7936,
        "meta_mean_anomaly": 171.875,
        "meta_ephemeris_type": 0,
        "meta_classification_type": "U",
        "meta_norad_cat_id": 33658,
        "meta_element_set_no": 999,
        "meta_rev_at_epoch": 58104,
        "meta_bstar": 0.0051435,
        "meta_mean_motion_dot": 5.177e-05,
        "meta_mean_motion_ddot": 0,
        "tle_line1": "1 33658U 99025DET 25344.16322449  .00005177  00000+0  51435-2 0  9998",
        "tle_line2": "2 33658  99.5634 137.4080 0283612 187.7936 171.8750 13.62337712581041"
      },
      "geometry": {
        "type": "Point",
        "coordinates": [
          -37.42675656941062,
          26.954740251592984
        ]
      }
    },
    {
      "type": "Feature",
      "properties": {
        "norad_id": 33660,
        "name": "FENGYUN 1C DEB",
        "group": "fengyun-1c-debris",
        "lat": -39.43736886134937,
        "lon": 68.5586043919545,
        "alt_km": 861.156442270456,
        "timestamp": "2025-12-10T09:57:44.985998+00:00",
        "meta_object_name": "FENGYUN 1C DEB",
        "meta_object_id": "1999-025DEV",
        "meta_epoch": "2025-12-08T17:21:22.345056",
        "meta_mean_motion": 13.91763329,
        "meta_eccentricity": 0.01098533,
        "meta_inclination": 98.6563,
        "meta_ra_of_asc_node": 254.177,
        "meta_arg_of_pericenter": 257.3117,
        "meta_mean_anomaly": 130.7477,
        "meta_ephemeris_type": 0,
        "meta_classification_type": "U",
        "meta_norad_cat_id": 33660,
        "meta_element_set_no": 999,
        "meta_rev_at_epoch": 91008,
        "meta_bstar": 0.00090111184,
        "meta_mean_motion_dot": 1.162e-05,
        "meta_mean_motion_ddot": 0,
        "tle_line1": "1 33660U 99025DEV 25342.72317529  .00001162  00000+0  90111-3 0  9999",
        "tle_line2": "2 33660  98.6563 254.1770 0109853 257.3117 130.7477 13.91763329910086"
      },
      "geometry": {
        "type": "Point",
        "coordinates": [
          68.5586043919545,
          -39.43736886134937
        ]
      }
    },
    {
      "type": "Feature",
      "properties": {
        "norad_id": 33663,
        "name": "FENGYUN 1C DEB",
        "group": "fengyun-1c-debris",
        "lat": 72.74869477900056,
        "lon": -54.813476362218196,
        "alt_km": 646.744723711151,
        "timestamp": "2025-12-10T09:57:44.986008+00:00",
        "meta_object_name": "FENGYUN 1C DEB",
        "meta_object_id": "1999-025DEY",
        "meta_epoch": "2025-12-09T10:37:30.702144",
        "meta_mean_motion": 14.61681168,
        "meta_eccentricity": 0.00823538,
        "meta_inclination": 98.8852,
        "meta_ra_of_asc_node": 334.3914,
        "meta_arg_of_pericenter": 23.2121,
        "meta_mean_anomaly": 337.2764,
        "meta_ephemeris_type": 0,
        "meta_classification_type": "U",
        "meta_norad_cat_id": 33663,
        "meta_element_set_no": 999,
        "meta_rev_at_epoch": 64154,
        "meta_bstar": 0.0086324652,
        "meta_mean_motion_dot": 0.00045332,
        "meta_mean_motion_ddot": 0,
        "tle_line1": "1 33663U 99025DEY 25343.44271646  .00045332  00000+0  86325-2 0  9999",
        "tle_line2": "2 33663  98.8852 334.3914 0082353  23.2121 337.2764 14.61681168641546"
      },
      "geometry": {
        "type": "Point",
        "coordinates": [
          -54.813476362218196,
          72.74869477900056
        ]
      }
    },
    {
      "type": "Feature",
      "properties": {
        "norad_id": 33664,
        "name": "FENGYUN 1C DEB",
        "group": "fengyun-1c-debris",
        "lat": 79.37024738447238,
        "lon": 78.56853776040123,
        "alt_km": 777.2264718047845,
        "timestamp": "2025-12-10T09:57:44.986018+00:00",
        "meta_object_name": "FENGYUN 1C DEB",
        "meta_object_id": "1999-025DEZ",
        "meta_epoch": "2025-12-02T03:10:30.773568",
        "meta_mean_motion": 14.03976749,
        "meta_eccentricity": 0.01640632,
        "meta_inclination": 98.7018,
        "meta_ra_of_asc_node": 125.3204,
        "meta_arg_of_pericenter": 69.7897,
        "meta_mean_anomaly": 292.0828,
        "meta_ephemeris_type": 0,
        "meta_classification_type": "U",
        "meta_norad_cat_id": 33664,
        "meta_element_set_no": 999,
        "meta_rev_at_epoch": 90590,
        "meta_bstar": 0.00053085125,
        "meta_mean_motion_dot": 9.05e-06,
        "meta_mean_motion_ddot": 0,
        "tle_line1": "1 33664U 99025DEZ 25336.13230062  .00000905  00000+0  53085-3 0  9990",
        "tle_line2": "2 33664  98.7018 125.3204 0164063  69.7897 292.0828 14.03976749905904"
      },
      "geometry": {
        "type": "Point",
        "coordinates": [
          78.56853776040123,
          79.37024738447238
        ]
      }
    },
    {
      "type": "Feature",
      "properties": {
        "norad_id": 33665,
        "name": "FENGYUN 1C DEB",
        "group": "fengyun-1c-debris",
        "lat": -23.211580574085524,
        "lon": -81.96612438979334,
        "alt_km": 956.6652591498287,
        "timestamp": "2025-12-10T09:57:44.986028+00:00",
        "meta_object_name": "FENGYUN 1C DEB",
        "meta_object_id": "1999-025DFA",
        "meta_epoch": "2025-12-09T14:13:34.413024",
        "meta_mean_motion": 14.03614886,
        "meta_eccentricity": 0.0455908,
        "meta_inclination": 99.0228,
        "meta_ra_of_asc_node": 101.1219,
        "meta_arg_of_pericenter": 100.9485,
        "meta_mean_anomaly": 264.3307,
        "meta_ephemeris_type": 0,
        "meta_classification_type": "U",
        "meta_norad_cat_id": 33665,
        "meta_element_set_no": 999,
        "meta_rev_at_epoch": 92547,
        "meta_bstar": 0.001048,
        "meta_mean_motion_dot": 4.143e-05,
        "meta_mean_motion_ddot": 0,
        "tle_line1": "1 33665U 99025DFA 25343.59275941  .00004143  00000+0  10480-2 0  9993",
        "tle_line2": "2 33665  99.0228 101.1219 0455908 100.9485 264.3307 14.03614886925471"
      },
      "geometry": {
        "type": "Point",
        "coordinates": [
          -81.96612438979334,
          -23.211580574085524
        ]
      }
    }
  ]
}